ONEWEB-0153             
1 48044U 21025C   24112.55603787  .00000086  00000+0  20129-3 0  9991
2 48044  87.8892 116.8101 0002073  91.0970 269.0396 13.13467977150289
ONEWEB-0154             
1 48045U 21025D   24112.55286875  .00000284  00000+0  74379-3 0  9993
2 48045  87.8887 116.8243 0001938  90.7689 269.3662 13.13468108150245
ONEWEB-0116             
1 48046U 21025E   24112.51795915  .00000024  00000+0  31555-4 0  9992
2 48046  87.8893 116.7979 0001779  88.7468 271.3865 13.13471637150387
ONEWEB-0150             
1 48047U 21025F   24112.56873963 -.00000221  00000+0 -63971-3 0  9995
2 48047  87.8889 116.8093 0002124  87.3083 272.8289 13.13468772150285
ONEWEB-0107             
1 48048U 21025G   24112.49414925 -.00000172  00000+0 -50485-3 0  9998
2 48048  87.8886 116.8229 0002319  88.2123 271.9271 13.13471354150253
ONEWEB-0101             
1 48049U 21025H   24112.53383569  .00000380  00000+0  10065-2 0  9991
2 48049  87.8892 116.8280 0002008  93.6263 266.5096 13.13469315150235
ONEWEB-0113             
1 48050U 21025J   24112.51160773 -.00000101  00000+0 -31178-3 0  9993
2 48050  87.8889 116.8149 0001796  89.6965 270.4370 13.13471863150313
ONEWEB-0112             
1 48051U 21025K   24112.49890161 -.00000212  00000+0 -61542-3 0  9993
2 48051  87.8886 116.8200 0002023  89.6405 270.4956 13.13468084150324
